{
  "type": "FeatureCollection",
  "features": [
    {
      "type": "Feature",
      "properties": {
        "norad_id": 62876,
        "name": "QZS-6 (QZSS/PRN 200)",
        "group": "gnss",
        "lat": 0.013640279727553597,
        "lon": 54.60604099351955,
        "alt_km": 35790.44245340685,
        "timestamp": "2025-12-17T15:50:10.023317+00:00",
        "meta_object_name": "QZS-6 (QZSS/PRN 200)",
        "meta_object_id": "2025-023A",
        "meta_epoch": "2025-12-17T02:39:38.687616",
        "meta_mean_motion": 1.00273531,
        "meta_eccentricity": 0.00015107,
        "meta_inclination": 0.0423,
        "meta_ra_of_asc_node": 65.1827,
        "meta_arg_of_pericenter": 210.8571,
        "meta_mean_anomaly": 300.3917,
        "meta_ephemeris_type": 0,
        "meta_classification_type": "U",
        "meta_norad_cat_id": 62876,
        "meta_element_set_no": 999,
        "meta_rev_at_epoch": 313,
        "meta_bstar": 0,
        "meta_mean_motion_dot": -2.09e-06,
        "meta_mean_motion_ddot": 0,
        "tle_line1": "1 62876U 25023A   25351.11086444 -.00000209  00000+0  00000+0 0  9995",
        "tle_line2": "2 62876   0.0423  65.1827 0001510 210.8571 300.3917  1.00273531  3132"
      },
      "geometry": {
        "type": "Point",
        "coordinates": [
          54.60604099351955,
          0.013640279727553597
        ]
      }
    },
    {
      "type": "Feature",
      "properties": {
        "norad_id": 63130,
        "name": "COSMOS 2584 (704K)",
        "group": "gnss",
        "lat": 64.7486623171175,
        "lon": 177.66468710046195,
        "alt_km": 19133.91927555276,
        "timestamp": "2025-12-17T15:50:10.023329+00:00",
        "meta_object_name": "COSMOS 2584 (704K)",
        "meta_object_id": "2025-042A",
        "meta_epoch": "2025-12-14T17:19:43.603680",
        "meta_mean_motion": 2.13103043,
        "meta_eccentricity": 0.00076907,
        "meta_inclination": 64.977,
        "meta_ra_of_asc_node": 79.0784,
        "meta_arg_of_pericenter": 217.9412,
        "meta_mean_anomaly": 142.0178,
        "meta_ephemeris_type": 0,
        "meta_classification_type": "U",
        "meta_norad_cat_id": 63130,
        "meta_element_set_no": 999,
        "meta_rev_at_epoch": 611,
        "meta_bstar": 0,
        "meta_mean_motion_dot": -5.6e-07,
        "meta_mean_motion_ddot": 0,
        "tle_line1": "1 63130U 25042A   25348.72203245 -.00000056  00000+0  00000+0 0  9993",
        "tle_line2": "2 63130  64.9770  79.0784 0007690 217.9412 142.0178  2.13103043  6119"
      },
      "geometry": {
        "type": "Point",
        "coordinates": [
          177.66468710046195,
          64.7486623171175
        ]
      }
    },
    {
      "type": "Feature",
      "properties": {
        "norad_id": 64202,
        "name": "GPS BIII-8  (PRN 21)",
        "group": "gnss",
        "lat": 33.699994172228706,
        "lon": 66.1719355254251,
        "alt_km": 20179.70384283562,
        "timestamp": "2025-12-17T15:50:10.023341+00:00",
        "meta_object_name": "GPS BIII-8  (PRN 21)",
        "meta_object_id": "2025-116A",
        "meta_epoch": "2025-12-14T02:46:13.653120",
        "meta_mean_motion": 2.00558299,
        "meta_eccentricity": 0.00056153,
        "meta_inclination": 55.1067,
        "meta_ra_of_asc_node": 38.5851,
        "meta_arg_of_pericenter": 308.147,
        "meta_mean_anomaly": 55.2369,
        "meta_ephemeris_type": 0,
        "meta_classification_type": "U",
        "meta_norad_cat_id": 64202,
        "meta_element_set_no": 999,
        "meta_rev_at_epoch": 416,
        "meta_bstar": 0,
        "meta_mean_motion_dot": -9.6e-07,
        "meta_mean_motion_ddot": 0,
        "tle_line1": "1 64202U 25116A   25348.11543580 -.00000096  00000+0  00000+0 0  9992",
        "tle_line2": "2 64202  55.1067  38.5851 0005615 308.1470  55.2369  2.00558299  4161"
      },
      "geometry": {
        "type": "Point",
        "coordinates": [
          66.1719355254251,
          33.699994172228706
        ]
      }
    },
    {
      "type": "Feature",
      "properties": {
        "norad_id": 65590,
        "name": "COSMOS 2596 (708K)",
        "group": "gnss",
        "lat": -28.713391454058435,
        "lon": 156.2735439100946,
        "alt_km": 19136.81172250736,
        "timestamp": "2025-12-17T15:50:10.023358+00:00",
        "meta_object_name": "COSMOS 2596 (708K)",
        "meta_object_id": "2025-206B",
        "meta_epoch": "2025-12-16T13:58:37.157664",
        "meta_mean_motion": 2.13100551,
        "meta_eccentricity": 0.00140491,
        "meta_inclination": 64.7424,
        "meta_ra_of_asc_node": 321.3409,
        "meta_arg_of_pericenter": 306.7915,
        "meta_mean_anomaly": 158.8114,
        "meta_ephemeris_type": 0,
        "meta_classification_type": "U",
        "meta_norad_cat_id": 65590,
        "meta_element_set_no": 999,
        "meta_rev_at_epoch": 202,
        "meta_bstar": 0,
        "meta_mean_motion_dot": -6.9e-07,
        "meta_mean_motion_ddot": 0,
        "tle_line1": "1 65590U 25206B   25350.58237451 -.00000069  00000+0  00000+0 0  9994",
        "tle_line2": "2 65590  64.7424 321.3409 0014049 306.7915 158.8114  2.13100551  2025"
      },
      "geometry": {
        "type": "Point",
        "coordinates": [
          156.2735439100946,
          -28.713391454058435
        ]
      }
    }
  ]
}